NORAD_CAT_ID,OBJECT_NAME,OBJECT_TYPE,EPOCH,MEAN_MOTION,ECCENTRICITY,INCLINATION,RA_OF_ASC_NODE,ARG_OF_PERICENTER,MEAN_ANOMALY,BSTAR,MEAN_MOTION_DOT,MEAN_MOTION_DDOT,TLE_LINE0,TLE_LINE1,TLE_LINE2,SEMIMAJOR_AXIS,PERIOD,APOGEE,PERIGEE,DECAYED
53141.0,STARLINK-4103,PAYLOAD,2024-07-04 07:52:53,15.08849654,0.0001318,53.2182,47.6073,86.1685,273.9458,8.5826e-05,1.079e-05,0.0,0 STARLINK-4103,1 53141U 22083K   24186.32840146  .00001079  00000-0  85826-4 0  9998,2 53141  53.2182  47.6073 0001318  86.1685 273.9458 15.08849654109256,6917.851,95.437,540.628,538.804,0.0
53141.0,STARLINK-4103,PAYLOAD,2024-07-04 20:35:59,15.08838047,0.0001121,53.2168,45.2298,80.5026,279.6093,8.5071e-06,-1.52e-06,0.0,0 STARLINK-4103,1 53141U 22083K   24186.85833103 -.00000152  00000-0  85071-5 0  9996,2 53141  53.2168  45.2298 0001121  80.5026 279.6093 15.08838047109333,6917.886,95.438,540.527,538.976,0.0
53141.0,STARLINK-4103,PAYLOAD,2024-07-04 22:11:22,15.08841599,0.0001126,53.217,44.9311,87.829,272.2831,5.0213e-05,5.11e-06,0.0,0 STARLINK-4103,1 53141U 22083K   24186.92456794  .00000511  00000-0  50213-4 0  9998,2 53141  53.2170  44.9311 0001126  87.8290 272.2831 15.08841599108712,6917.876,95.437,540.519,538.962,0.0
53141.0,STARLINK-4103,PAYLOAD,2024-07-04 23:46:45,15.08845433,0.0001215,53.2179,44.6323,92.8177,267.2955,9.4711e-05,1.22e-05,0.0,0 STARLINK-4103,1 53141U 22083K   24186.99080433  .00001220  00000-0  94711-4 0  9997,2 53141  53.2179  44.6323 0001215  92.8177 267.2955 15.08845433109353,6917.864,95.437,540.569,538.888,0.0
53141.0,STARLINK-4103,PAYLOAD,2024-07-05 20:26:46,15.08837232,0.0001121,53.2169,40.7681,84.1945,275.9175,5.2762e-05,5.52e-06,0.0,0 STARLINK-4103,1 53141U 22083K   24187.85193201  .00000552  00000-0  52762-4 0  9998,2 53141  53.2169  40.7681 0001121  84.1945 275.9175 15.08837232109481,6917.889,95.438,540.529,538.978,0.0
53141.0,STARLINK-4103,PAYLOAD,2024-07-06 07:34:28,15.08845908,0.0001125,53.217,38.6865,84.4252,275.6869,5.475e-05,5.84e-06,0.0,0 STARLINK-4103,1 53141U 22083K   24188.31560590  .00000584  00000-0  54750-4 0  9993,2 53141  53.2170  38.6865 0001125  84.4252 275.6869 15.08845908109555,6917.862,95.437,540.506,538.949,0.0
53141.0,STARLINK-4103,PAYLOAD,2024-07-06 13:56:01,15.08841848,0.0001529,53.2194,37.4962,92.2004,267.9163,-7.2841e-06,-4.04e-06,0.0,0 STARLINK-4103,1 53141U 22083K   24188.58057039 -.00000404  00000-0 -72841-5 0  9996,2 53141  53.2194  37.4962 0001529  92.2004 267.9163 15.08841848108960,6917.875,95.437,540.797,538.682,0.0
53141.0,STARLINK-4103,PAYLOAD,2024-07-06 20:17:33,15.08841094,0.0001247,53.2183,36.3075,90.859,269.2545,-1.039e-05,-4.53e-06,0.0,0 STARLINK-4103,1 53141U 22083K   24188.84553152 -.00000453  00000-0 -10390-4 0  9996,2 53141  53.2183  36.3075 0001247  90.8590 269.2545 15.08841094109639,6917.877,95.437,540.605,538.879,0.0
53141.0,STARLINK-4103,PAYLOAD,2024-07-07 07:25:15,15.08843722,0.0001353,53.2188,34.2238,97.5044,262.6102,3.5778e-05,2.82e-06,0.0,0 STARLINK-4103,1 53141U 22083K   24189.30920715  .00000282  00000-0  35778-4 0  9996,2 53141  53.2188  34.2238 0001353  97.5044 262.6102 15.08843722109072,6917.869,95.437,540.67,538.798,0.0
53141.0,STARLINK-4103,PAYLOAD,2024-07-07 20:08:20,15.08839004,0.0001453,53.2193,31.8454,105.6211,254.4942,9.6592e-05,1.25e-05,0.0,0 STARLINK-4103,1 53141U 22083K   24189.83912970  .00001250  00000-0  96592-4 0  9995,2 53141  53.2193  31.8454 0001453 105.6211 254.4942 15.08839004109157,6917.883,95.438,540.754,538.743,0.0
53141.0,STARLINK-4103,PAYLOAD,2024-07-08 19:59:07,15.08837902,0.0001126,53.2179,27.3858,91.8818,268.2303,0.00012172,1.65e-05,0.0,0 STARLINK-4103,1 53141U 22083K   24190.83272968  .00001650  00000-0  12172-3 0  9998,2 53141  53.2179  27.3858 0001126  91.8818 268.2303 15.08837902109930,6917.887,95.438,540.531,538.973,0.0
53141.0,STARLINK-4103,PAYLOAD,2024-07-09 13:28:23,15.08820331,0.0001151,53.2177,24.1138,91.4399,268.6725,0.00025234,3.728e-05,0.0,0 STARLINK-4103,1 53141U 22083K   24191.56137735  .00003728  00000-0  25234-3 0  9992,2 53141  53.2177  24.1138 0001151  91.4399 268.6725 15.08820331110046,6917.941,95.439,540.602,539.009,0.0
53141.0,STARLINK-4103,PAYLOAD,2024-07-09 18:14:32,15.08833343,0.000113,53.2179,23.2192,95.6967,264.4154,1.8684e-06,-2.58e-06,0.0,0 STARLINK-4103,1 53141U 22083K   24191.76009565 -.00000258  00000-0  18684-5 0  9992,2 53141  53.2179  23.2192 0001130  95.6967 264.4154 15.08833343109441,6917.901,95.438,540.547,538.984,0.0
53141.0,STARLINK-4103,PAYLOAD,2024-07-09 23:00:41,15.08835338,0.000111,53.2179,22.3294,91.4397,268.6722,-2.818e-05,-7.36e-06,0.0,0 STARLINK-4103,1 53141U 22083K   24191.95881608 -.00000736  00000-0 -28180-4 0  9992,2 53141  53.2179  22.3294 0001110  91.4397 268.6722 15.08835338110101,6917.895,95.438,540.528,538.992,0.0
53141.0,STARLINK-4103,PAYLOAD,2024-07-10 05:22:13,15.08841881,0.0001365,53.2192,21.143,81.802,278.3126,-3.5316e-06,-3.44e-06,0.0,0 STARLINK-4103,1 53141U 22083K   24192.22377196 -.00000344  00000-0 -35316-5 0  9990,2 53141  53.2192  21.1430 0001365  81.8020 278.3126 15.08841881110143,6917.875,95.437,540.684,538.795,0.0
53141.0,STARLINK-4103,PAYLOAD,2024-07-11 11:34:34,15.088277,0.0001184,53.2184,15.4939,86.7938,273.319,0.00014844,2.075e-05,0.0,0 STARLINK-4103,1 53141U 22083K   24193.48233853  .00002075  00000-0  14844-3 0  9992,2 53141  53.2184  15.4939 0001184  86.7938 273.3190 15.08827700109705,6917.918,95.438,540.602,538.964,0.0
53141.0,STARLINK-4103,PAYLOAD,2024-07-12 05:03:48,15.08850459,7.84e-05,53.217,12.2218,88.6024,271.5058,0.00017344,2.474e-05,0.0,0 STARLINK-4103,1 53141U 22083K   24194.21097384  .00002474  00000-0  17344-3 0  9992,2 53141  53.2170  12.2218 0000784  88.6024 271.5058 15.08850459110440,6917.848,95.437,540.256,539.171,0.0
53141.0,STARLINK-4103,PAYLOAD,2024-07-12 11:25:20,15.08849065,0.0002385,53.2163,11.0329,81.8303,278.296,0.00012735,1.74e-05,0.0,0 STARLINK-4103,1 53141U 22083K   24194.47593147  .00001740  00000-0  12735-3 0  9992,2 53141  53.2163  11.0329 0002385  81.8303 278.2960 15.08849065109856,6917.853,95.437,541.368,538.068,0.0
53141.0,STARLINK-4103,PAYLOAD,2024-07-12 19:22:16,15.08838129,0.0001287,53.219,9.5465,83.9143,276.1996,8.5849e-05,1.079e-05,0.0,0 STARLINK-4103,1 53141U 22083K   24194.80713740  .00001079  00000-0  85849-4 0  9994,2 53141  53.2190   9.5465 0001287  83.9143 276.1996 15.08838129110536,6917.886,95.438,540.641,538.861,0.0
53141.0,STARLINK-4103,PAYLOAD,2024-07-13 04:54:34,15.08847855,0.0001373,53.2195,7.7616,93.7463,266.3686,0.0001371,1.895e-05,0.0,0 STARLINK-4103,1 53141U 22083K   24195.20456985  .00001895  00000-0  13710-3 0  9997,2 53141  53.2195   7.7616 0001373  93.7463 266.3686 15.08847855110598,6917.856,95.437,540.671,538.772,0.0
53141.0,STARLINK-4103,PAYLOAD,2024-07-13 11:16:08,15.08835449,0.0001226,53.2176,6.5715,88.8484,271.2649,-6.4714e-05,-1.317e-05,0.0,0 STARLINK-4103,1 53141U 22083K   24195.46954448 -.00001317  00000-0 -64714-4 0  9994,2 53141  53.2176   6.5715 0001226  88.8484 271.2649 15.08835449110634,6917.894,95.438,540.607,538.911,0.0
53141.0,STARLINK-4103,PAYLOAD,2024-07-13 17:37:41,15.08833262,0.0001043,53.2179,5.3797,112.3751,247.7352,-2.654e-05,-7.1e-06,0.0,0 STARLINK-4103,1 53141U 22083K   24195.73450357 -.00000710  00000-0 -26540-4 0  9995,2 53141  53.2179   5.3797 0001043 112.3751 247.7352 15.08833262110046,6917.901,95.438,540.488,539.044,0.0
53141.0,STARLINK-4103,PAYLOAD,2024-07-14 11:06:54,15.08848178,0.0001887,53.2201,2.1095,93.4516,266.6692,-1.6132e-06,-3.14e-06,0.0,0 STARLINK-4103,1 53141U 22083K   24196.46313523 -.00000314  00000-0 -16132-5 0  9996,2 53141  53.2201   2.1095 0001887  93.4516 266.6692 15.08848178110782,6917.855,95.437,541.026,538.415,0.0
53141.0,STARLINK-4103,PAYLOAD,2024-07-14 17:28:27,15.0884232,0.0001357,53.2169,0.9214,88.7957,271.3191,0.000112,1.495e-05,0.0,0 STARLINK-4103,1 53141U 22083K   24196.72809448  .00001495  00000-0  11200-3 0  9999,2 53141  53.2169   0.9214 0001357  88.7957 271.3191 15.08842320110197,6917.873,95.437,540.677,538.8,0.0
53141.0,STARLINK-4103,PAYLOAD,2024-07-15 14:08:28,15.08835422,0.0001237,53.2198,357.0538,105.4909,254.622,0.00023728,3.49e-05,0.0,0 STARLINK-4103,1 53141U 22083K   24197.58921395  .00003490  00000-0  23728-3 0  9995,2 53141  53.2198 357.0538 0001237 105.4909 254.6220 15.08835422110322,6917.894,95.438,540.615,538.904,0.0
53141.0,STARLINK-4103,PAYLOAD,2024-07-15 17:19:14,15.08834009,0.00011,53.2181,356.4615,91.605,268.5068,0.00013001,1.782e-05,0.0,0 STARLINK-4103,1 53141U 22083K   24197.72169754  .00001782  00000-0  13001-3 0  9999,2 53141  53.2181 356.4615 0001100  91.6050 268.5068 15.08834009110970,6917.899,95.438,540.525,539.003,0.0
53141.0,STARLINK-4103,PAYLOAD,2024-07-16 10:48:30,15.08827893,0.0001308,53.2184,353.1901,91.0541,269.0601,-2.8627e-05,-7.43e-06,0.0,0 STARLINK-4103,1 53141U 22083K   24198.45034733 -.00000743  00000-0 -28627-4 0  9997,2 53141  53.2184 353.1901 0001308  91.0541 269.0601 15.08827893111089,6917.917,95.438,540.687,538.878,0.0
53141.0,STARLINK-4103,PAYLOAD,2024-07-16 13:59:16,15.08828175,0.0001162,53.2184,352.5954,87.1245,272.9881,3.5764e-05,2.81e-06,0.0,0 STARLINK-4103,1 53141U 22083K   24198.58282543  .00000281  00000-0  35764-4 0  9990,2 53141  53.2184 352.5954 0001162  87.1245 272.9881 15.08828175110474,6917.917,95.438,540.585,538.978,0.0
53141.0,STARLINK-4103,PAYLOAD,2024-07-16 15:34:39,15.08830752,0.0001235,53.2184,352.2979,88.3918,271.7216,3.6035e-05,2.86e-06,0.0,0 STARLINK-4103,1 53141U 22083K   24198.64906387  .00000286  00000-0  36035-4 0  9993,2 53141  53.2184 352.2979 0001235  88.3918 271.7216 15.08830752110483,6917.909,95.438,540.628,538.919,0.0
53141.0,STARLINK-4103,PAYLOAD,2024-07-17 02:42:19,15.08852699,0.0001257,53.2193,350.2169,110.1002,250.0125,0.00010949,1.456e-05,0.0,0 STARLINK-4103,1 53141U 22083K   24199.11272984  .00001456  00000-0  10949-3 0  9990,2 53141  53.2193 350.2169 0001257 110.1002 250.0125 15.08852699111185,6917.842,95.437,540.576,538.837,0.0
